{"fetched_at":"2026-04-01T16:59:04Z","count":11445,"tles":[{"name":"RASSVET-3 OBJECT N","line1":"1 68372U 26061N   26090.65647177  .00065502  34232-6  22640-3 0  9996","line2":"2 68372  82.2970  99.7100 0026313  44.3305 316.0066 15.88751202  1266","category":"Other"}]}